[{"OBJECT_NAME":"COSMOS 2414","OBJECT_ID":"2005-002A","EPOCH":"2026-03-09T14:50:05.809056","MEAN_MOTION":13.87915528,"ECCENTRICITY":0.0038721,"INCLINATION":82.9481,"RA_OF_ASC_NODE":118.9723,"ARG_OF_PERICENTER":252.5669,"MEAN_ANOMALY":107.1259,"EPHEMERIS_TYPE":0,"CLASSIFICATION_TYPE":"U","NORAD_CAT_ID":28521,"ELEMENT_SET_NO":999,"REV_AT_EPOCH":7000,"BSTAR":5.6357e-5,"MEAN_MOTION_DOT":8.3e-7,"MEAN_MOTION_DDOT":0},{"OBJECT_NAME":"UNKNOWN","OBJECT_ID":"","EPOCH":"2026-03-07T10:45:42.474528","MEAN_MOTION":13.32766957,"ECCENTRICITY":0.0768452,"INCLINATION":65.6676,"RA_OF_ASC_NODE":228.8005,"ARG_OF_PERICENTER":336.6253,"MEAN_ANOMALY":20.1508,"EPHEMERIS_TYPE":0,"CLASSIFICATION_TYPE":"U","NORAD_CAT_ID":81864,"ELEMENT_SET_NO":999,"REV_AT_EPOCH":56212,"BSTAR":0.0004593,"MEAN_MOTION_DOT":1.157e-5,"MEAN_MOTION_DDOT":0}]
